[{"OBJECT_NAME":"BREEZE-M R/B","OBJECT_ID":"2012-011B","EPOCH":"2026-03-30T05:07:46.890624","MEAN_MOTION":1.11833956,"ECCENTRICITY":0.76071054,"INCLINATION":25.438,"RA_OF_ASC_NODE":169.757,"ARG_OF_PERICENTER":0.1185,"MEAN_ANOMALY":0.1351,"EPHEMERIS_TYPE":0,"CLASSIFICATION_TYPE":"U","NORAD_CAT_ID":38099,"ELEMENT_SET_NO":999,"REV_AT_EPOCH":5709,"BSTAR":0,"MEAN_MOTION_DOT":-3.84e-6,"MEAN_MOTION_DDOT":0},{"OBJECT_NAME":"COSMOS 2479","OBJECT_ID":"2012-012A","EPOCH":"2026-04-04T14:36:18.262944","MEAN_MOTION":1.0035254,"ECCENTRICITY":0.0006515,"INCLINATION":8.6832,"RA_OF_ASC_NODE":57.0686,"ARG_OF_PERICENTER":245.8966,"MEAN_ANOMALY":131.522,"EPHEMERIS_TYPE":0,"CLASSIFICATION_TYPE":"U","NORAD_CAT_ID":38101,"ELEMENT_SET_NO":999,"REV_AT_EPOCH":5135,"BSTAR":0,"MEAN_MOTION_DOT":1.34e-6,"MEAN_MOTION_DDOT":0},{"OBJECT_NAME":"SL-12 R/B(2)","OBJECT_ID":"2012-012D","EPOCH":"2026-04-04T13:44:08.265696","MEAN_MOTION":1.00337449,"ECCENTRICITY":0.0012746,"INCLINATION":8.671,"RA_OF_ASC_NODE":57.2763,"ARG_OF_PERICENTER":300.8661,"MEAN_ANOMALY":240.6542,"EPHEMERIS_TYPE":0,"CLASSIFICATION_TYPE":"U","NORAD_CAT_ID":38104,"ELEMENT_SET_NO":999,"REV_AT_EPOCH":5132,"BSTAR":0,"MEAN_MOTION_DOT":1.28e-6,"MEAN_MOTION_DDOT":0},{"OBJECT_NAME":"APSTAR-7","OBJECT_ID":"2012-013A","EPOCH":"2026-04-04T22:56:37.873824","MEAN_MOTION":1.00272272,"ECCENTRICITY":0.0002848,"INCLINATION":0.0159,"RA_OF_ASC_NODE":218.9142,"ARG_OF_PERICENTER":174.3799,"MEAN_ANOMALY":220.6236,"EPHEMERIS_TYPE":0,"CLASSIFICATION_TYPE":"U","NORAD_CAT_ID":38107,"ELEMENT_SET_NO":999,"REV_AT_EPOCH":5107,"BSTAR":0,"MEAN_MOTION_DOT":-1.01e-6,"MEAN_MOTION_DDOT":0},{"OBJECT_NAME":"YAHSAT 1B","OBJECT_ID":"2012-016A","EPOCH":"2026-04-04T21:34:08.014368","MEAN_MOTION":1.00270437,"ECCENTRICITY":0.00027315,"INCLINATION":0.091,"RA_OF_ASC_NODE":87.2422,"ARG_OF_PERICENTER":292.3755,"MEAN_ANOMALY":184.7091,"EPHEMERIS_TYPE":0,"CLASSIFICATION_TYPE":"U","NORAD_CAT_ID":38245,"ELEMENT_SET_NO":999,"REV_AT_EPOCH":4487,"BSTAR":0,"MEAN_MOTION_DOT":1.27e-6,"MEAN_MOTION_DDOT":0},{"OBJECT_NAME":"AEHF-2 (USA 235)","OBJECT_ID":"2012-019A","EPOCH":"2026-04-04T17:50:29.643360","MEAN_MOTION":1.00271257,"ECCENTRICITY":0.00028588,"INCLINATION":6.4812,"RA_OF_ASC_NODE":58.0145,"ARG_OF_PERICENTER":302.6143,"MEAN_ANOMALY":83.5796,"EPHEMERIS_TYPE":0,"CLASSIFICATION_TYPE":"U","NORAD_CAT_ID":38254,"ELEMENT_SET_NO":999,"REV_AT_EPOCH":625,"BSTAR":0,"MEAN_MOTION_DOT":-1.32e-6,"MEAN_MOTION_DDOT":0},{"OBJECT_NAME":"JCSAT-13","OBJECT_ID":"2012-023A","EPOCH":"2026-04-04T21:55:58.418976","MEAN_MOTION":1.00270483,"ECCENTRICITY":0.00026791,"INCLINATION":0.0442,"RA_OF_ASC_NODE":77.6496,"ARG_OF_PERICENTER":327.0859,"MEAN_ANOMALY":241.4734,"EPHEMERIS_TYPE":0,"CLASSIFICATION_TYPE":"U","NORAD_CAT_ID":38331,"ELEMENT_SET_NO":999,"REV_AT_EPOCH":5080,"BSTAR":0,"MEAN_MOTION_DOT":-3.55e-6,"MEAN_MOTION_DDOT":0},{"OBJECT_NAME":"VINASAT-2","OBJECT_ID":"2012-023B","EPOCH":"2026-04-04T21:58:13.203840","MEAN_MOTION":1.0027261,"ECCENTRICITY":0.00028346,"INCLINATION":0.0392,"RA_OF_ASC_NODE":46.2876,"ARG_OF_PERICENTER":347.1596,"MEAN_ANOMALY":261.1738,"EPHEMERIS_TYPE":0,"CLASSIFICATION_TYPE":"U","NORAD_CAT_ID":38332,"ELEMENT_SET_NO":999,"REV_AT_EPOCH":4592,"BSTAR":0,"MEAN_MOTION_DOT":-3.28e-6,"MEAN_MOTION_DDOT":0},{"OBJECT_NAME":"NIMIQ 6","OBJECT_ID":"2012-026A","EPOCH":"2026-04-04T20:54:36.947808","MEAN_MOTION":1.00271766,"ECCENTRICITY":0.00026028,"INCLINATION":0.046,"RA_OF_ASC_NODE":68.2956,"ARG_OF_PERICENTER":305.9486,"MEAN_ANOMALY":41.4822,"EPHEMERIS_TYPE":0,"CLASSIFICATION_TYPE":"U","NORAD_CAT_ID":38342,"ELEMENT_SET_NO":999,"REV_AT_EPOCH":4967,"BSTAR":0,"MEAN_MOTION_DOT":-1.73e-6,"MEAN_MOTION_DDOT":0},{"OBJECT_NAME":"ZHONGXING-2A","OBJECT_ID":"2012-028A","EPOCH":"2026-04-04T21:48:36.624672","MEAN_MOTION":1.00271427,"ECCENTRICITY":0.0001032,"INCLINATION":1.2653,"RA_OF_ASC_NODE":84.8351,"ARG_OF_PERICENTER":340.831,"MEAN_ANOMALY":192.9826,"EPHEMERIS_TYPE":0,"CLASSIFICATION_TYPE":"U","NORAD_CAT_ID":38352,"ELEMENT_SET_NO":999,"REV_AT_EPOCH":5056,"BSTAR":0,"MEAN_MOTION_DOT":-2.91e-6,"MEAN_MOTION_DDOT":0},{"OBJECT_NAME":"INTELSAT 19 (IS-19)","OBJECT_ID":"2012-030A","EPOCH":"2026-04-04T19:59:38.444640","MEAN_MOTION":1.00270153,"ECCENTRICITY":0.00030845,"INCLINATION":0.0237,"RA_OF_ASC_NODE":105.0968,"ARG_OF_PERICENTER":271.6773,"MEAN_ANOMALY":282.2766,"EPHEMERIS_TYPE":0,"CLASSIFICATION_TYPE":"U","NORAD_CAT_ID":38356,"ELEMENT_SET_NO":999,"REV_AT_EPOCH":4971,"BSTAR":0,"MEAN_MOTION_DOT":-5.6e-7,"MEAN_MOTION_DDOT":0},{"OBJECT_NAME":"BLOCK DM-SL R/B","OBJECT_ID":"2012-030B","EPOCH":"2026-04-04T13:11:11.340384","MEAN_MOTION":2.25340835,"ECCENTRICITY":0.70904027,"INCLINATION":0.3043,"RA_OF_ASC_NODE":82.8369,"ARG_OF_PERICENTER":283.5747,"MEAN_ANOMALY":359.2889,"EPHEMERIS_TYPE":0,"CLASSIFICATION_TYPE":"U","NORAD_CAT_ID":38357,"ELEMENT_SET_NO":999,"REV_AT_EPOCH":11397,"BSTAR":0.0024310181,"MEAN_MOTION_DOT":-1.11e-6,"MEAN_MOTION_DDOT":0},{"OBJECT_NAME":"DELTA 4 R/B","OBJECT_ID":"2012-034B","EPOCH":"2026-04-04T14:59:23.071776","MEAN_MOTION":1.03149726,"ECCENTRICITY":0.01933887,"INCLINATION":6.798,"RA_OF_ASC_NODE":60.4584,"ARG_OF_PERICENTER":178.5062,"MEAN_ANOMALY":181.589,"EPHEMERIS_TYPE":0,"CLASSIFICATION_TYPE":"U","NORAD_CAT_ID":38529,"ELEMENT_SET_NO":999,"REV_AT_EPOCH":2588,"BSTAR":0,"MEAN_MOTION_DOT":-3.3e-7,"MEAN_MOTION_DDOT":0},{"OBJECT_NAME":"ECHOSTAR 17","OBJECT_ID":"2012-035A","EPOCH":"2026-04-04T20:49:52.402368","MEAN_MOTION":1.00272005,"ECCENTRICITY":0.0001876,"INCLINATION":0.0183,"RA_OF_ASC_NODE":179.5148,"ARG_OF_PERICENTER":200.6155,"MEAN_ANOMALY":18.4115,"EPHEMERIS_TYPE":0,"CLASSIFICATION_TYPE":"U","NORAD_CAT_ID":38551,"ELEMENT_SET_NO":999,"REV_AT_EPOCH":5032,"BSTAR":0,"MEAN_MOTION_DOT":-7.5e-7,"MEAN_MOTION_DDOT":0},{"OBJECT_NAME":"METEOSAT-10 (MSG-3)","OBJECT_ID":"2012-035B","EPOCH":"2026-04-04T17:55:14.187936","MEAN_MOTION":1.00273407,"ECCENTRICITY":0.0002416,"INCLINATION":4.4985,"RA_OF_ASC_NODE":61.3242,"ARG_OF_PERICENTER":296.4452,"MEAN_ANOMALY":104.1652,"EPHEMERIS_TYPE":0,"CLASSIFICATION_TYPE":"U","NORAD_CAT_ID":38552,"ELEMENT_SET_NO":999,"REV_AT_EPOCH":5012,"BSTAR":0,"MEAN_MOTION_DOT":-4.0e-8,"MEAN_MOTION_DDOT":0},{"OBJECT_NAME":"SES-5","OBJECT_ID":"2012-036A","EPOCH":"2026-04-04T19:39:16.689888","MEAN_MOTION":1.00274399,"ECCENTRICITY":0.00020271,"INCLINATION":0.0599,"RA_OF_ASC_NODE":303.2244,"ARG_OF_PERICENTER":70.1077,"MEAN_ANOMALY":119.583,"EPHEMERIS_TYPE":0,"CLASSIFICATION_TYPE":"U","NORAD_CAT_ID":38652,"ELEMENT_SET_NO":999,"REV_AT_EPOCH":4372,"BSTAR":0,"MEAN_MOTION_DOT":3.5e-7,"MEAN_MOTION_DDOT":0},{"OBJECT_NAME":"SATCOM 3 DEB","OBJECT_ID":"1979-101W","EPOCH":"2026-04-04T09:35:11.638464","MEAN_MOTION":1.80353108,"ECCENTRICITY":0.47572769,"INCLINATION":7.5686,"RA_OF_ASC_NODE":195.1471,"ARG_OF_PERICENTER":254.8967,"MEAN_ANOMALY":49.5299,"EPHEMERIS_TYPE":0,"CLASSIFICATION_TYPE":"U","NORAD_CAT_ID":38687,"ELEMENT_SET_NO":999,"REV_AT_EPOCH":12156,"BSTAR":0,"MEAN_MOTION_DOT":-7.0e-7,"MEAN_MOTION_DDOT":0}]
