BREEZE-M R/B            
1 38099U 12011B   26089.21373716 -.00000384  00000+0  00000+0 0  9993
2 38099  25.4380 169.7570 7607105   0.1185   0.1351  1.11833956 57097
COSMOS 2479             
1 38101U 12012A   26094.60854471  .00000134  00000+0  00000+0 0  9991
2 38101   8.6832  57.0686 0006515 245.8966 131.5220  1.00352540 51359
SL-12 R/B(2)            
1 38104U 12012D   26094.57231789  .00000128  00000+0  00000+0 0  9994
2 38104   8.6710  57.2763 0012746 300.8661 240.6542  1.00337449 51329
APSTAR-7                
1 38107U 12013A   26094.95599391 -.00000101  00000+0  00000+0 0  9998
2 38107   0.0159 218.9142 0002848 174.3799 220.6236  1.00272272 51072
YAHSAT 1B               
1 38245U 12016A   26094.89870387  .00000127  00000+0  00000+0 0  9991
2 38245   0.0910  87.2422 0002731 292.3755 184.7091  1.00270437 44872
AEHF-2 (USA 235)        
1 38254U 12019A   26094.74339865 -.00000132  00000+0  00000+0 0  9996
2 38254   6.4812  58.0145 0002858 302.6143  83.5796  1.00271257  6256
JCSAT-13                
1 38331U 12023A   26094.91387059 -.00000355  00000+0  00000+0 0  9991
2 38331   0.0442  77.6496 0002679 327.0859 241.4734  1.00270483 50800
VINASAT-2               
1 38332U 12023B   26094.91543060 -.00000328  00000+0  00000+0 0  9998
2 38332   0.0392  46.2876 0002834 347.1596 261.1738  1.00272610 45927
NIMIQ 6                 
1 38342U 12026A   26094.87126097 -.00000173  00000+0  00000+0 0  9992
2 38342   0.0460  68.2956 0002602 305.9486  41.4822  1.00271766 49670
ZHONGXING-2A            
1 38352U 12028A   26094.90875723 -.00000291  00000+0  00000+0 0  9997
2 38352   1.2653  84.8351 0001032 340.8310 192.9826  1.00271427 50561
INTELSAT 19 (IS-19)     
1 38356U 12030A   26094.83308385 -.00000056  00000+0  00000+0 0  9990
2 38356   0.0237 105.0968 0003084 271.6773 282.2766  1.00270153 49719
BLOCK DM-SL R/B         
1 38357U 12030B   26094.54943681 -.00000111  00000+0  24310-2 0  9998
2 38357   0.3043  82.8369 7090402 283.5747 359.2889  2.25340835113979
DELTA 4 R/B             
1 38529U 12034B   26094.62457259 -.00000033  00000+0  00000+0 0  9993
2 38529   6.7980  60.4584 0193388 178.5062 181.5890  1.03149726 25885
ECHOSTAR 17             
1 38551U 12035A   26094.86796762 -.00000075  00000+0  00000+0 0  9996
2 38551   0.0183 179.5148 0001876 200.6155  18.4115  1.00272005 50329
METEOSAT-10 (MSG-3)     
1 38552U 12035B   26094.74669199 -.00000004  00000+0  00000+0 0  9999
2 38552   4.4985  61.3242 0002416 296.4452 104.1652  1.00273407 50129
SES-5                   
1 38652U 12036A   26094.81894317  .00000035  00000+0  00000+0 0  9994
2 38652   0.0599 303.2244 0002027  70.1077 119.5830  1.00274399 43728
SATCOM 3 DEB            
1 38687U 79101W   26094.39944026 -.00000070  00000+0  00000+0 0  9994
2 38687   7.5686 195.1471 4757276 254.8967  49.5299  1.80353108121565
